NORAD_CAT_ID,OBJECT_NAME,OBJECT_TYPE,EPOCH,MEAN_MOTION,ECCENTRICITY,INCLINATION,RA_OF_ASC_NODE,ARG_OF_PERICENTER,MEAN_ANOMALY,BSTAR,MEAN_MOTION_DOT,MEAN_MOTION_DDOT,TLE_LINE0,TLE_LINE1,TLE_LINE2,SEMIMAJOR_AXIS,PERIOD,APOGEE,PERIGEE,DECAYED
53975.0,STARLINK-5137,PAYLOAD,2023-06-13 21:30:31,15.08839479,8.91e-05,53.2178,26.9444,90.2965,269.8129,5.7726e-05,6.31e-06,0.0,0 STARLINK-5137,1 53975U 22125M   23164.89619309  .00000631  00000-0  57726-4 0  9993,2 53975  53.2178  26.9444 0000891  90.2965 269.8129 15.08839479 38467,6917.882,95.438,540.363,539.131,0.0
53975.0,STARLINK-5137,PAYLOAD,2023-06-14 00:41:17,15.08842898,0.0001075,53.2184,26.3467,107.5398,252.5712,-1.3158e-05,-4.97e-06,0.0,0 STARLINK-5137,1 53975U 22125M   23165.02867221 -.00000497  00000-0 -13158-4 0  9990,2 53975  53.2184  26.3467 0001075 107.5398 252.5712 15.08842898 38556,6917.872,95.437,540.48,538.993,0.0
53975.0,STARLINK-5137,PAYLOAD,2023-06-14 21:21:18,15.08836016,9.63e-05,53.2182,22.4829,84.337,275.7731,1.8845e-05,1.2e-07,0.0,0 STARLINK-5137,1 53975U 22125M   23165.88979765  .00000012  00000-0  18845-4 0  9990,2 53975  53.2182  22.4829 0000963  84.3370 275.7731 15.08836016 38610,6917.893,95.438,540.424,539.091,0.0
53975.0,STARLINK-5137,PAYLOAD,2023-06-15 13:15:10,15.08833378,8.45e-05,53.2182,19.5101,85.9216,274.1873,4.3525e-05,4.05e-06,0.0,0 STARLINK-5137,1 53975U 22125M   23166.55220083  .00000405  00000-0  43525-4 0  9996,2 53975  53.2182  19.5101 0000845  85.9216 274.1873 15.08833378 38714,6917.901,95.438,540.35,539.181,0.0
53975.0,STARLINK-5137,PAYLOAD,2023-06-15 18:01:19,15.08838716,9.07e-05,53.2177,18.619,87.3083,272.8013,1.7336e-05,-1.2e-07,0.0,0 STARLINK-5137,1 53975U 22125M   23166.75091901 -.00000012  00000-0  17336-4 0  9999,2 53975  53.2177  18.6190 0000907  87.3083 272.8013 15.08838716 38748,6917.884,95.438,540.377,539.122,0.0
53975.0,STARLINK-5137,PAYLOAD,2023-06-16 00:22:51,15.0884359,9.17e-05,53.2178,17.4293,86.5803,273.5294,6.6425e-05,7.7e-06,0.0,0 STARLINK-5137,1 53975U 22125M   23167.01587458  .00000770  00000-0  66425-4 0  9999,2 53975  53.2178  17.4293 0000917  86.5803 273.5294 15.08843590 38859,6917.869,95.437,540.369,539.1,0.0
53975.0,STARLINK-5137,PAYLOAD,2023-06-16 06:44:24,15.08833801,9.75e-05,53.2173,16.2386,88.6952,271.4152,3.1651e-05,2.16e-06,0.0,0 STARLINK-5137,1 53975U 22125M   23167.28084284  .00000216  00000-0  31651-4 0  9995,2 53975  53.2173  16.2386 0000975  88.6952 271.4152 15.08833801 38894,6917.899,95.438,540.439,539.09,0.0
53975.0,STARLINK-5137,PAYLOAD,2023-06-16 21:02:52,15.08841598,8.81e-05,53.2175,13.5638,91.1303,268.979,0.00013208,1.815e-05,0.0,0 STARLINK-5137,1 53975U 22125M   23167.87699732  .00001815  00000-0  13208-3 0  9993,2 53975  53.2175  13.5638 0000881  91.1303 268.9790 15.08841598 38915,6917.876,95.437,540.35,539.131,0.0
53975.0,STARLINK-5137,PAYLOAD,2023-06-16 22:38:15,15.08843446,9.05e-05,53.2178,13.2661,88.2188,271.8907,0.00015293,2.147e-05,0.0,0 STARLINK-5137,1 53975U 22125M   23167.94323632  .00002147  00000-0  15293-3 0  9999,2 53975  53.2178  13.2661 0000905  88.2188 271.8907 15.08843446 38991,6917.87,95.437,540.361,539.109,0.0
53975.0,STARLINK-5137,PAYLOAD,2023-06-17 06:35:11,15.08838761,9.01e-05,53.218,11.78,82.4286,277.6809,9.8514e-05,1.28e-05,0.0,0 STARLINK-5137,1 53975U 22125M   23168.27444127  .00001280  00000-0  98514-4 0  9994,2 53975  53.2180  11.7800 0000901  82.4286 277.6809 15.08838761 39049,6917.884,95.438,540.372,539.126,0.0
53975.0,STARLINK-5137,PAYLOAD,2023-06-17 16:07:31,15.08826424,9.4e-05,53.2181,9.995,84.8628,275.2471,-6.9448e-05,-1.392e-05,0.0,0 STARLINK-5137,1 53975U 22125M   23168.67189544 -.00001392  00000-0 -69448-4 0  9997,2 53975  53.2181   9.9950 0000940  84.8628 275.2471 15.08826424 39103,6917.922,95.438,540.437,539.137,0.0
53975.0,STARLINK-5137,PAYLOAD,2023-06-18 06:25:59,15.0883756,9.3e-05,53.2181,7.3182,77.1133,282.9963,7.2303e-05,8.63e-06,0.0,0 STARLINK-5137,1 53975U 22125M   23169.26804651  .00000863  00000-0  72303-4 0  9990,2 53975  53.2181   7.3182 0000930  77.1133 282.9963 15.08837560 39190,6917.888,95.438,540.396,539.109,0.0
53975.0,STARLINK-5137,PAYLOAD,2023-06-18 12:47:31,15.08839123,9.01e-05,53.218,6.1291,84.7338,275.3757,0.00015074,2.112e-05,0.0,0 STARLINK-5137,1 53975U 22125M   23169.53300528  .00002112  00000-0  15074-3 0  9994,2 53975  53.2180   6.1291 0000901  84.7338 275.3757 15.08839123 39167,6917.883,95.438,540.371,539.125,0.0
53975.0,STARLINK-5137,PAYLOAD,2023-06-18 15:58:17,15.08845504,9.19e-05,53.2178,5.5355,88.0755,272.0342,0.00015282,2.146e-05,0.0,0 STARLINK-5137,1 53975U 22125M   23169.66548165  .00002146  00000-0  15282-3 0  9997,2 53975  53.2178   5.5355 0000919  88.0755 272.0342 15.08845504 39251,6917.864,95.437,540.364,539.093,0.0
53975.0,STARLINK-5137,PAYLOAD,2023-06-18 19:09:03,15.08846825,9.04e-05,53.2169,4.9409,81.4134,278.696,0.00021728,3.173e-05,0.0,0 STARLINK-5137,1 53975U 22125M   23169.79796206  .00003173  00000-0  21728-3 0  9995,2 53975  53.2169   4.9409 0000904  81.4134 278.6960 15.08846825 39206,6917.86,95.437,540.35,539.099,0.0
53975.0,STARLINK-5137,PAYLOAD,2023-06-19 07:52:07,15.08867782,0.0001038,53.2169,2.5618,93.4952,266.6159,-0.00043351,-7.186e-05,0.0,0 STARLINK-5137,1 53975U 22125M   23170.32786604 -.00007186  00000-0 -43351-3 0  9993,2 53975  53.2169   2.5618 0001038  93.4952 266.6159 15.08867782 39350,6917.795,95.436,540.379,538.942,0.0
53975.0,STARLINK-5137,PAYLOAD,2023-06-19 15:49:04,15.08843839,9.74e-05,53.2166,1.0748,74.165,285.945,0.00020952,3.049e-05,0.0,0 STARLINK-5137,1 53975U 22125M   23170.65908314  .00003049  00000-0  20952-3 0  9997,2 53975  53.2166   1.0748 0000974  74.1650 285.9450 15.08843839 39405,6917.869,95.437,540.407,539.06,0.0
53975.0,STARLINK-5137,PAYLOAD,2023-06-19 18:59:50,15.08847742,9.66e-05,53.2169,0.4806,72.3543,287.7555,0.00024616,3.633e-05,0.0,0 STARLINK-5137,1 53975U 22125M   23170.79156066  .00003633  00000-0  24616-3 0  9991,2 53975  53.2169   0.4806 0000966  72.3543 287.7555 15.08847742 39355,6917.857,95.437,540.39,539.053,0.0
53975.0,STARLINK-5137,PAYLOAD,2023-06-20 07:42:55,15.08849779,7.78e-05,53.217,358.1005,80.4331,279.6749,0.0001564,2.203e-05,0.0,0 STARLINK-5137,1 53975U 22125M   23171.32147705  .00002203  00000-0  15640-3 0  9990,2 53975  53.2170 358.1005 0000778  80.4331 279.6749 15.08849779 39433,6917.85,95.437,540.254,539.177,0.0
53975.0,STARLINK-5137,PAYLOAD,2023-06-20 17:15:14,15.0884166,9.32e-05,53.2166,356.3169,82.2493,277.8605,-1.9548e-05,-5.99e-06,0.0,0 STARLINK-5137,1 53975U 22125M   23171.71892076 -.00000599  00000-0 -19548-4 0  9991,2 53975  53.2166 356.3169 0000932  82.2493 277.8605 15.08841660 39566,6917.875,95.437,540.385,539.096,0.0
53975.0,STARLINK-5137,PAYLOAD,2023-06-20 18:50:37,15.08843477,8.86e-05,53.2174,356.0194,87.4593,272.6501,1.3781e-05,-6.8e-07,0.0,0 STARLINK-5137,1 53975U 22125M   23171.78516145 -.00000068  00000-0  13781-4 0  9991,2 53975  53.2174 356.0194 0000886  87.4593 272.6501 15.08843477 39506,6917.87,95.437,540.348,539.122,0.0
53975.0,STARLINK-5137,PAYLOAD,2023-06-21 12:19:52,15.08839418,8.24e-05,53.2176,352.7478,93.8675,266.2412,3.0805e-05,2.03e-06,0.0,0 STARLINK-5137,1 53975U 22125M   23172.51380202  .00000203  00000-0  30805-4 0  9992,2 53975  53.2176 352.7478 0000824  93.8675 266.2412 15.08839418 39612,6917.882,95.438,540.317,539.177,0.0
53975.0,STARLINK-5137,PAYLOAD,2023-06-21 18:41:24,15.0884217,9e-05,53.2177,351.5589,86.1188,273.9907,5.2594e-05,5.49e-06,0.0,0 STARLINK-5137,1 53975U 22125M   23172.77875972  .00000549  00000-0  52594-4 0  9995,2 53975  53.2177 351.5589 0000900  86.1188 273.9907 15.08842170 39727,6917.874,95.437,540.361,539.116,0.0
53975.0,STARLINK-5137,PAYLOAD,2023-06-23 10:26:03,15.08836484,8.56e-05,53.2175,344.1258,96.8847,263.2243,6.2311e-05,7.04e-06,0.0,0 STARLINK-5137,1 53975U 22125M   23174.43476612  .00000704  00000-0  62311-4 0  9999,2 53975  53.2175 344.1258 0000856  96.8847 263.2243 15.08836484 39979,6917.891,95.438,540.348,539.164,0.0
53975.0,STARLINK-5137,PAYLOAD,2023-06-24 16:38:23,15.08839278,8.09e-05,53.2166,338.477,96.9609,263.1475,3.1839e-05,2.19e-06,0.0,0 STARLINK-5137,1 53975U 22125M   23175.69332925  .00000219  00000-0  31839-4 0  9998,2 53975  53.2166 338.4770 0000809  96.9609 263.1475 15.08839278 40162,6917.883,95.438,540.307,539.188,0.0
53975.0,STARLINK-5137,PAYLOAD,2023-06-24 19:49:09,15.08846131,8.3e-05,53.2168,337.8818,100.3138,259.7947,8.1434e-05,1.009e-05,0.0,0 STARLINK-5137,1 53975U 22125M   23175.82580310  .00001009  00000-0  81434-4 0  9990,2 53975  53.2168 337.8818 0000830 100.3138 259.7947 15.08846131 40184,6917.862,95.437,540.301,539.152,0.0
53975.0,STARLINK-5137,PAYLOAD,2023-06-25 03:46:05,15.08838913,0.0001082,53.2192,336.3954,94.9889,265.1227,1.1939e-05,-9.8e-07,0.0,0 STARLINK-5137,1 53975U 22125M   23176.15701082 -.00000098  00000-0  11939-4 0  9999,2 53975  53.2192 336.3954 0001082  94.9889 265.1227 15.08838913 40234,6917.884,95.438,540.497,539.0,0.0
53975.0,STARLINK-5137,PAYLOAD,2023-06-25 19:39:56,15.08846848,9.1e-05,53.2178,333.4187,86.0144,274.0952,0.00012074,1.635e-05,0.0,0 STARLINK-5137,1 53975U 22125M   23176.81940313  .00001635  00000-0  12074-3 0  9991,2 53975  53.2178 333.4187 0000910  86.0144 274.0952 15.08846848 40330,6917.859,95.437,540.354,539.095,0.0
53975.0,STARLINK-5137,PAYLOAD,2023-06-26 16:19:55,15.08863849,9.46e-05,53.2175,329.5543,77.4503,282.6595,0.00024306,3.585e-05,0.0,0 STARLINK-5137,1 53975U 22125M   23177.68050639  .00003585  00000-0  24306-3 0  9997,2 53975  53.2175 329.5543 0000946  77.4503 282.6595 15.08863849 40463,6917.807,95.436,540.327,539.018,0.0
53975.0,STARLINK-5137,PAYLOAD,2023-06-27 09:49:11,15.08831776,0.0001383,53.2166,326.2831,84.872,275.243,-0.00021306,-3.676e-05,0.0,0 STARLINK-5137,1 53975U 22125M   23178.40916382 -.00003676  00000-0 -21306-3 0  9994,2 53975  53.2166 326.2831 0001383  84.8720 275.2430 15.08831776 40578,6917.906,95.438,540.727,538.814,0.0
